{"type": "FeatureCollection", "features": [ {"type": "Feature", "properties": {"norad_id": 44476, "name": "INTELSAT 39 (IS-39)", "group": "intelsat", "lat": 0.03642604084632426, "lon": 45.44114205478275, "alt_km": 35787.619531008095, "timestamp": "2025-12-08T17:43:04.562803+00:00", "meta": {"OBJECT_NAME": "INTELSAT 39 (IS-39)", "OBJECT_ID": "2019-049B", "EPOCH": "2025-12-08T05:20:15.073152", "MEAN_MOTION": 1.00270225, "ECCENTRICITY": 8.498e-05, "INCLINATION": 0.0172, "RA_OF_ASC_NODE": 325.2678, "ARG_OF_PERICENTER": 188.8959, "MEAN_ANOMALY": 65.0792, "EPHEMERIS_TYPE": 0, "CLASSIFICATION_TYPE": "U", "NORAD_CAT_ID": 44476, "ELEMENT_SET_NO": 999, "REV_AT_EPOCH": 2321, "BSTAR": 0, "MEAN_MOTION_DOT": 3.6e-07, "MEAN_MOTION_DDOT": 0}, "tle": {"line1": "1 44476U 19049B   25342.22239668  .00000036  00000+0  00000+0 0  9999", "line2": "2 44476   0.0172 325.2678 0000849 188.8959  65.0792  1.00270225 23215"}}, "geometry": {"type": "Point", "coordinates": [45.44114205478275, 0.03642604084632426]}}, {"type": "Feature", "properties": {"norad_id": 46114, "name": "GALAXY 30 (G-30)", "group": "intelsat", "lat": -0.029918180093189143, "lon": -141.51715892809756, "alt_km": 35778.09959741268, "timestamp": "2025-12-08T17:43:04.562815+00:00", "meta": {"OBJECT_NAME": "GALAXY 30 (G-30)", "OBJECT_ID": "2020-056C", "EPOCH": "2025-12-08T05:46:43.301280", "MEAN_MOTION": 1.00270993, "ECCENTRICITY": 0.0002437, "INCLINATION": 0.017, "RA_OF_ASC_NODE": 351.6835, "ARG_OF_PERICENTER": 264.3869, "MEAN_ANOMALY": 142.8564, "EPHEMERIS_TYPE": 0, "CLASSIFICATION_TYPE": "U", "NORAD_CAT_ID": 46114, "ELEMENT_SET_NO": 999, "REV_AT_EPOCH": 1937, "BSTAR": 0, "MEAN_MOTION_DOT": 3.9e-07, "MEAN_MOTION_DDOT": 0}, "tle": {"line1": "1 46114U 20056C   25342.24077895  .00000039  00000+0  00000+0 0  9997", "line2": "2 46114   0.0170 351.6835 0002437 264.3869 142.8564  1.00270993 19372"}}, "geometry": {"type": "Point", "coordinates": [-141.51715892809756, -0.029918180093189143]}}, {"type": "Feature", "properties": {"norad_id": 54026, "name": "GALAXY 33 (G-33)", "group": "intelsat", "lat": -0.03128911448669509, "lon": -149.51076840652544, "alt_km": 35778.62334006337, "timestamp": "2025-12-08T17:43:04.562827+00:00", "meta": {"OBJECT_NAME": "GALAXY 33 (G-33)", "OBJECT_ID": "2022-128A", "EPOCH": "2025-12-08T05:42:50.193216", "MEAN_MOTION": 1.00271663, "ECCENTRICITY": 0.00022726, "INCLINATION": 0.0169, "RA_OF_ASC_NODE": 300.5528, "ARG_OF_PERICENTER": 309.077, "MEAN_ANOMALY": 140.3276, "EPHEMERIS_TYPE": 0, "CLASSIFICATION_TYPE": "U", "NORAD_CAT_ID": 54026, "ELEMENT_SET_NO": 999, "REV_AT_EPOCH": 1182, "BSTAR": 0, "MEAN_MOTION_DOT": 8.2e-07, "MEAN_MOTION_DDOT": 0}, "tle": {"line1": "1 54026U 22128A   25342.23808094  .00000082  00000+0  00000+0 0  9990", "line2": "2 54026   0.0169 300.5528 0002272 309.0770 140.3276  1.00271663 11828"}}, "geometry": {"type": "Point", "coordinates": [-149.51076840652544, -0.03128911448669509]}}, {"type": "Feature", "properties": {"norad_id": 54027, "name": "GALAXY 34 (G-34)", "group": "intelsat", "lat": -0.04381855384729074, "lon": -145.43952145821765, "alt_km": 35781.61259341352, "timestamp": "2025-12-08T17:43:04.562839+00:00", "meta": {"OBJECT_NAME": "GALAXY 34 (G-34)", "OBJECT_ID": "2022-128B", "EPOCH": "2025-12-08T05:44:47.318784", "MEAN_MOTION": 1.00270169, "ECCENTRICITY": 0.00013611, "INCLINATION": 0.0273, "RA_OF_ASC_NODE": 316.9402, "ARG_OF_PERICENTER": 289.4406, "MEAN_ANOMALY": 148.1317, "EPHEMERIS_TYPE": 0, "CLASSIFICATION_TYPE": "U", "NORAD_CAT_ID": 54027, "ELEMENT_SET_NO": 999, "REV_AT_EPOCH": 1199, "BSTAR": 0, "MEAN_MOTION_DOT": 0, "MEAN_MOTION_DDOT": 0}, "tle": {"line1": "1 54027U 22128B   25342.23943656  .00000000  00000+0  00000+0 0  9995", "line2": "2 54027   0.0273 316.9402 0001361 289.4406 148.1317  1.00270169 11992"}}, "geometry": {"type": "Point", "coordinates": [-145.43952145821765, -0.04381855384729074]}}, {"type": "Feature", "properties": {"norad_id": 54243, "name": "GALAXY 31 (G-31)", "group": "intelsat", "lat": -0.022775696605930464, "lon": -137.50274851387002, "alt_km": 35779.43895360444, "timestamp": "2025-12-08T17:43:04.562851+00:00", "meta": {"OBJECT_NAME": "GALAXY 31 (G-31)", "OBJECT_ID": "2022-153A", "EPOCH": "2025-12-08T05:49:39.710208", "MEAN_MOTION": 1.00273838, "ECCENTRICITY": 0.00019373, "INCLINATION": 0.0222, "RA_OF_ASC_NODE": 258.0312, "ARG_OF_PERICENTER": 7.0498, "MEAN_ANOMALY": 138.5901, "EPHEMERIS_TYPE": 0, "CLASSIFICATION_TYPE": "U", "NORAD_CAT_ID": 54243, "ELEMENT_SET_NO": 999, "REV_AT_EPOCH": 521, "BSTAR": 0, "MEAN_MOTION_DOT": 1.5e-07, "MEAN_MOTION_DDOT": 0}, "tle": {"line1": "1 54243U 22153A   25342.24282072  .00000015  00000+0  00000+0 0  9998", "line2": "2 54243   0.0222 258.0312 0001937   7.0498 138.5901  1.00273838  5212"}}, "geometry": {"type": "Point", "coordinates": [-137.50274851387002, -0.022775696605930464]}}, {"type": "Feature", "properties": {"norad_id": 54244, "name": "GALAXY 32 (G-32)", "group": "intelsat", "lat": -0.03106566296415379, "lon": -107.52208905260116, "alt_km": 35779.81514596442, "timestamp": "2025-12-08T17:43:04.562863+00:00", "meta": {"OBJECT_NAME": "GALAXY 32 (G-32)", "OBJECT_ID": "2022-153B", "EPOCH": "2025-12-08T06:05:59.661600", "MEAN_MOTION": 1.00270611, "ECCENTRICITY": 0.00027185, "INCLINATION": 0.0093, "RA_OF_ASC_NODE": 337.982, "ARG_OF_PERICENTER": 329.4117, "MEAN_ANOMALY": 130.3686, "EPHEMERIS_TYPE": 0, "CLASSIFICATION_TYPE": "U", "NORAD_CAT_ID": 54244, "ELEMENT_SET_NO": 999, "REV_AT_EPOCH": 1122, "BSTAR": 0, "MEAN_MOTION_DOT": -1.72e-06, "MEAN_MOTION_DDOT": 0}, "tle": {"line1": "1 54244U 22153B   25342.25416275 -.00000172  00000+0  00000+0 0  9999", "line2": "2 54244   0.0093 337.9820 0002718 329.4117 130.3686  1.00270611 11221"}}, "geometry": {"type": "Point", "coordinates": [-107.52208905260116, -0.03106566296415379]}}, {"type": "Feature", "properties": {"norad_id": 54741, "name": "GALAXY 35 (G-35)", "group": "intelsat", "lat": -0.01420601812144451, "lon": -109.59011500169781, "alt_km": 35775.225402190554, "timestamp": "2025-12-08T17:43:04.562875+00:00", "meta": {"OBJECT_NAME": "GALAXY 35 (G-35)", "OBJECT_ID": "2022-170A", "EPOCH": "2025-12-08T06:05:11.066784", "MEAN_MOTION": 1.00271048, "ECCENTRICITY": 0.0002692, "INCLINATION": 0.0173, "RA_OF_ASC_NODE": 70.6993, "ARG_OF_PERICENTER": 193.2206, "MEAN_ANOMALY": 171.5523, "EPHEMERIS_TYPE": 0, "CLASSIFICATION_TYPE": "U", "NORAD_CAT_ID": 54741, "ELEMENT_SET_NO": 999, "REV_AT_EPOCH": 1097, "BSTAR": 0, "MEAN_MOTION_DOT": -1.6e-06, "MEAN_MOTION_DDOT": 0}, "tle": {"line1": "1 54741U 22170A   25342.25360031 -.00000160  00000+0  00000+0 0  9995", "line2": "2 54741   0.0173  70.6993 0002692 193.2206 171.5523  1.00271048 10974"}}, "geometry": {"type": "Point", "coordinates": [-109.59011500169781, -0.01420601812144451]}}, {"type": "Feature", "properties": {"norad_id": 54742, "name": "GALAXY 36 (G-36)", "group": "intelsat", "lat": -0.02508942032461402, "lon": -105.50064367193332, "alt_km": 35784.09449777734, "timestamp": "2025-12-08T17:43:04.562887+00:00", "meta": {"OBJECT_NAME": "GALAXY 36 (G-36)", "OBJECT_ID": "2022-170B", "EPOCH": "2025-12-08T06:07:07.853664", "MEAN_MOTION": 1.00270845, "ECCENTRICITY": 6.009e-05, "INCLINATION": 0.0076, "RA_OF_ASC_NODE": 17.0792, "ARG_OF_PERICENTER": 263.4805, "MEAN_ANOMALY": 159.4861, "EPHEMERIS_TYPE": 0, "CLASSIFICATION_TYPE": "U", "NORAD_CAT_ID": 54742, "ELEMENT_SET_NO": 999, "REV_AT_EPOCH": 1085, "BSTAR": 0, "MEAN_MOTION_DOT": -1.83e-06, "MEAN_MOTION_DDOT": 0}, "tle": {"line1": "1 54742U 22170B   25342.25495201 -.00000183  00000+0  00000+0 0  9999", "line2": "2 54742   0.0076  17.0792 0000600 263.4805 159.4861  1.00270845 10852"}}, "geometry": {"type": "Point", "coordinates": [-105.50064367193332, -0.02508942032461402]}}, {"type": "Feature", "properties": {"norad_id": 57493, "name": "GALAXY 37 (G-37)", "group": "intelsat", "lat": -0.027830279488988606, "lon": -143.5127229401756, "alt_km": 35779.23130939449, "timestamp": "2025-12-08T17:43:04.562899+00:00", "meta": {"OBJECT_NAME": "GALAXY 37 (G-37)", "OBJECT_ID": "2023-112A", "EPOCH": "2025-12-08T06:46:03.618048", "MEAN_MOTION": 1.00271142, "ECCENTRICITY": 0.00023782, "INCLINATION": 0.0101, "RA_OF_ASC_NODE": 324.5093, "ARG_OF_PERICENTER": 297.9622, "MEAN_ANOMALY": 149.3372, "EPHEMERIS_TYPE": 0, "CLASSIFICATION_TYPE": "U", "NORAD_CAT_ID": 57493, "ELEMENT_SET_NO": 999, "REV_AT_EPOCH": 862, "BSTAR": 0, "MEAN_MOTION_DOT": 5.1e-07, "MEAN_MOTION_DDOT": 0}, "tle": {"line1": "1 57493U 23112A   25342.28198632  .00000051  00000+0  00000+0 0  9996", "line2": "2 57493   0.0101 324.5093 0002378 297.9622 149.3372  1.00271142  8628"}}, "geometry": {"type": "Point", "coordinates": [-143.5127229401756, -0.027830279488988606]}}]}